{
  "type": "FeatureCollection",
  "features": [
    {
      "type": "Feature",
      "properties": {
        "norad_id": 29486,
        "name": "GPS BIIRM-2 (PRN 31)",
        "group": "gps-ops",
        "lat": -40.08870272990675,
        "lon": 15.754505130743867,
        "alt_km": 20473.0439611024,
        "timestamp": "2025-12-03T08:58:46.254579+00:00",
        "meta_object_name": "GPS BIIRM-2 (PRN 31)",
        "meta_object_id": "2006-042A",
        "meta_epoch": "2025-12-02T13:41:33.602784",
        "meta_mean_motion": 2.00554444,
        "meta_eccentricity": 0.0107363,
        "meta_inclination": 54.6926,
        "meta_ra_of_asc_node": 159.1445,
        "meta_arg_of_pericenter": 51.7169,
        "meta_mean_anomaly": 320.193,
        "meta_ephemeris_type": 0,
        "meta_classification_type": "U",
        "meta_norad_cat_id": 29486,
        "meta_element_set_no": 999,
        "meta_rev_at_epoch": 14045,
        "meta_bstar": 0,
        "meta_mean_motion_dot": 1.17e-06,
        "meta_mean_motion_ddot": 0,
        "tle_line1": "1 29486U 06042A   25336.57052781  .00000117  00000+0  00000+0 0  9992",
        "tle_line2": "2 29486  54.6926 159.1445 0107363  51.7169 320.1930  2.00554444140451"
      },
      "geometry": {
        "type": "Point",
        "coordinates": [
          15.754505130743867,
          -40.08870272990675
        ]
      }
    },
    {
      "type": "Feature",
      "properties": {
        "norad_id": 29601,
        "name": "GPS BIIRM-3 (PRN 12)",
        "group": "gps-ops",
        "lat": -50.86382311404818,
        "lon": 162.3554329853166,
        "alt_km": 20402.855201476064,
        "timestamp": "2025-12-03T08:58:46.254592+00:00",
        "meta_object_name": "GPS BIIRM-3 (PRN 12)",
        "meta_object_id": "2006-052A",
        "meta_epoch": "2025-12-01T23:28:25.341312",
        "meta_mean_motion": 2.0057269,
        "meta_eccentricity": 0.0087496,
        "meta_inclination": 54.9731,
        "meta_ra_of_asc_node": 221.8254,
        "meta_arg_of_pericenter": 87.3285,
        "meta_mean_anomaly": 273.7543,
        "meta_ephemeris_type": 0,
        "meta_classification_type": "U",
        "meta_norad_cat_id": 29601,
        "meta_element_set_no": 999,
        "meta_rev_at_epoch": 13945,
        "meta_bstar": 0,
        "meta_mean_motion_dot": 5.5e-07,
        "meta_mean_motion_ddot": 0,
        "tle_line1": "1 29601U 06052A   25335.97807108  .00000055  00000+0  00000+0 0  9997",
        "tle_line2": "2 29601  54.9731 221.8254 0087496  87.3285 273.7543  2.00572690139454"
      },
      "geometry": {
        "type": "Point",
        "coordinates": [
          162.3554329853166,
          -50.86382311404818
        ]
      }
    },
    {
      "type": "Feature",
      "properties": {
        "norad_id": 32260,
        "name": "GPS BIIRM-4 (PRN 15)",
        "group": "gps-ops",
        "lat": 48.98684706961944,
        "lon": 144.91835349876223,
        "alt_km": 19757.195457546077,
        "timestamp": "2025-12-03T08:58:46.254605+00:00",
        "meta_object_name": "GPS BIIRM-4 (PRN 15)",
        "meta_object_id": "2007-047A",
        "meta_epoch": "2025-12-02T18:46:05.230272",
        "meta_mean_motion": 2.00564824,
        "meta_eccentricity": 0.0164375,
        "meta_inclination": 53.9483,
        "meta_ra_of_asc_node": 88.1698,
        "meta_arg_of_pericenter": 85.1293,
        "meta_mean_anomaly": 276.722,
        "meta_ephemeris_type": 0,
        "meta_classification_type": "U",
        "meta_norad_cat_id": 32260,
        "meta_element_set_no": 999,
        "meta_rev_at_epoch": 13287,
        "meta_bstar": 0,
        "meta_mean_motion_dot": -1.7e-07,
        "meta_mean_motion_ddot": 0,
        "tle_line1": "1 32260U 07047A   25336.78200498 -.00000017  00000+0  00000+0 0  9995",
        "tle_line2": "2 32260  53.9483  88.1698 0164375  85.1293 276.7220  2.00564824132879"
      },
      "geometry": {
        "type": "Point",
        "coordinates": [
          144.91835349876223,
          48.98684706961944
        ]
      }
    },
    {
      "type": "Feature",
      "properties": {
        "norad_id": 32384,
        "name": "GPS BIIRM-5 (PRN 29)",
        "group": "gps-ops",
        "lat": -15.125058201721147,
        "lon": 112.82490794367862,
        "alt_km": 20113.653103713776,
        "timestamp": "2025-12-03T08:58:46.254617+00:00",
        "meta_object_name": "GPS BIIRM-5 (PRN 29)",
        "meta_object_id": "2007-062A",
        "meta_epoch": "2025-12-02T20:24:02.738016",
        "meta_mean_motion": 2.00576658,
        "meta_eccentricity": 0.0032212,
        "meta_inclination": 55.191,
        "meta_ra_of_asc_node": 282.0426,
        "meta_arg_of_pericenter": 162.849,
        "meta_mean_anomaly": 16.9412,
        "meta_ephemeris_type": 0,
        "meta_classification_type": "U",
        "meta_norad_cat_id": 32384,
        "meta_element_set_no": 999,
        "meta_rev_at_epoch": 13157,
        "meta_bstar": 0,
        "meta_mean_motion_dot": -4.3e-07,
        "meta_mean_motion_ddot": 0,
        "tle_line1": "1 32384U 07062A   25336.85003169 -.00000043  00000+0  00000+0 0  9992",
        "tle_line2": "2 32384  55.1910 282.0426 0032212 162.8490  16.9412  2.00576658131576"
      },
      "geometry": {
        "type": "Point",
        "coordinates": [
          112.82490794367862,
          -15.125058201721147
        ]
      }
    },
    {
      "type": "Feature",
      "properties": {
        "norad_id": 32711,
        "name": "GPS BIIRM-6 (PRN 07)",
        "group": "gps-ops",
        "lat": 44.192514716635955,
        "lon": -66.27952971744047,
        "alt_km": 20468.459878708665,
        "timestamp": "2025-12-03T08:58:46.254629+00:00",
        "meta_object_name": "GPS BIIRM-6 (PRN 07)",
        "meta_object_id": "2008-012A",
        "meta_epoch": "2025-12-02T16:51:27.111168",
        "meta_mean_motion": 2.00565045,
        "meta_eccentricity": 0.0202061,
        "meta_inclination": 54.4758,
        "meta_ra_of_asc_node": 157.7736,
        "meta_arg_of_pericenter": 244.8404,
        "meta_mean_anomaly": 113.092,
        "meta_ephemeris_type": 0,
        "meta_classification_type": "U",
        "meta_norad_cat_id": 32711,
        "meta_element_set_no": 999,
        "meta_rev_at_epoch": 12981,
        "meta_bstar": 0,
        "meta_mean_motion_dot": 1.14e-06,
        "meta_mean_motion_ddot": 0,
        "tle_line1": "1 32711U 08012A   25336.70239712  .00000114  00000+0  00000+0 0  9999",
        "tle_line2": "2 32711  54.4758 157.7736 0202061 244.8404 113.0920  2.00565045129816"
      },
      "geometry": {
        "type": "Point",
        "coordinates": [
          -66.27952971744047,
          44.192514716635955
        ]
      }
    },
    {
      "type": "Feature",
      "properties": {
        "norad_id": 35752,
        "name": "GPS BIIRM-8 (PRN 05)",
        "group": "gps-ops",
        "lat": 29.555000879166037,
        "lon": -167.2318825056948,
        "alt_km": 20111.77391581887,
        "timestamp": "2025-12-03T08:58:46.254641+00:00",
        "meta_object_name": "GPS BIIRM-8 (PRN 05)",
        "meta_object_id": "2009-043A",
        "meta_epoch": "2025-12-01T04:42:32.815296",
        "meta_mean_motion": 2.00566259,
        "meta_eccentricity": 0.00521242,
        "meta_inclination": 56.0822,
        "meta_ra_of_asc_node": 35.2386,
        "meta_arg_of_pericenter": 82.0997,
        "meta_mean_anomaly": 288.3285,
        "meta_ephemeris_type": 0,
        "meta_classification_type": "U",
        "meta_norad_cat_id": 35752,
        "meta_element_set_no": 999,
        "meta_rev_at_epoch": 11939,
        "meta_bstar": 0,
        "meta_mean_motion_dot": -6.6e-07,
        "meta_mean_motion_ddot": 0,
        "tle_line1": "1 35752U 09043A   25335.19621314 -.00000066  00000+0  00000+0 0  9994",
        "tle_line2": "2 35752  56.0822  35.2386 0052124  82.0997 288.3285  2.00566259119397"
      },
      "geometry": {
        "type": "Point",
        "coordinates": [
          -167.2318825056948,
          29.555000879166037
        ]
      }
    },
    {
      "type": "Feature",
      "properties": {
        "norad_id": 36585,
        "name": "GPS BIIF-1  (PRN 25)",
        "group": "gps-ops",
        "lat": -53.40307651339294,
        "lon": 111.7546179710841,
        "alt_km": 20508.986006204028,
        "timestamp": "2025-12-03T08:58:46.254666+00:00",
        "meta_object_name": "GPS BIIF-1  (PRN 25)",
        "meta_object_id": "2010-022A",
        "meta_epoch": "2025-12-02T06:20:52.766304",
        "meta_mean_motion": 2.00552564,
        "meta_eccentricity": 0.0125665,
        "meta_inclination": 54.3023,
        "meta_ra_of_asc_node": 216.4964,
        "meta_arg_of_pericenter": 64.9581,
        "meta_mean_anomaly": 115.6293,
        "meta_ephemeris_type": 0,
        "meta_classification_type": "U",
        "meta_norad_cat_id": 36585,
        "meta_element_set_no": 999,
        "meta_rev_at_epoch": 11364,
        "meta_bstar": 0,
        "meta_mean_motion_dot": 6.7e-07,
        "meta_mean_motion_ddot": 0,
        "tle_line1": "1 36585U 10022A   25336.26449961  .00000067  00000+0  00000+0 0  9993",
        "tle_line2": "2 36585  54.3023 216.4964 0125665  64.9581 115.6293  2.00552564113647"
      },
      "geometry": {
        "type": "Point",
        "coordinates": [
          111.7546179710841,
          -53.40307651339294
        ]
      }
    }
  ]
}